OBJECT_NAME,OBJECT_ID,EPOCH,MEAN_MOTION,ECCENTRICITY,INCLINATION,RA_OF_ASC_NODE,ARG_OF_PERICENTER,MEAN_ANOMALY,EPHEMERIS_TYPE,CLASSIFICATION_TYPE,NORAD_CAT_ID,ELEMENT_SET_NO,REV_AT_EPOCH,BSTAR,MEAN_MOTION_DOT,MEAN_MOTION_DDOT
YUNHAI-1 03,2022-115A,2026-07-13T12:23:00.242592,14.32735735,.000427,98.5543,192.3300,344.8869,15.2187,0,U,53877,999,19928,.10184E-3,.234E-5,0
CENTISPACE-1 S5,2022-126A,2026-07-13T09:18:12.534048,14.63054750,.0014452,54.9989,108.1105,121.0234,239.2181,0,U,54020,999,20087,.1143E-3,.402E-5,0
CENTISPACE-1 S6,2022-126B,2026-07-13T11:05:43.374048,14.62315153,.0016248,54.9991,109.8002,122.2582,237.9988,0,U,54021,999,20084,.91931E-4,.279E-5,0
OTB-3-GAZELLE,2022-127A,2026-07-13T11:37:29.195616,14.42683642,.0014398,98.3960,185.7900,107.6366,252.6398,0,U,54023,999,19815,.33856E-4,.69E-6,0
ASO-S,2022-129A,2026-07-13T12:11:01.519872,14.52074362,.0014695,98.2755,199.2120,17.3165,342.8529,0,U,54029,999,19924,.36672E-4,.104E-5,0
HJ-2E,2022-132A,2026-07-13T12:12:15.142176,15.22680455,.001802,97.3799,198.4175,277.0380,82.8807,0,U,54035,999,20842,.19083E-3,.4393E-4,0
COSMOS 2561,2022-137A,2026-07-13T12:46:16.597920,15.52345255,.0008158,96.9177,252.5562,288.2828,71.7538,0,U,54109,999,21043,.13754E-3,.8296E-4,0
GONETS-M 23,2022-139A,2026-07-13T12:06:52.655040,12.42891899,.0022065,82.5093,331.9386,162.0645,198.1218,0,U,54150,999,16891,.64135E-4,.19E-6,0
GONETS-M 24,2022-139B,2026-07-13T11:28:05.244672,12.42892472,.001713,82.5010,330.9972,171.7340,188.4025,0,U,54151,999,16891,-.50155E-5,.9E-7,0
GONETS-M 25,2022-139C,2026-07-13T11:08:32.834688,12.42890833,.0021067,82.5075,331.7061,170.7681,189.3790,0,U,54152,999,16891,-.24005E-4,.7E-7,0
SKIF-D,2022-139D,2026-07-13T00:55:53.253120,5.00430161,.0007434,89.9493,96.6607,188.4298,171.6266,0,U,54153,999,6540,0,.8E-7,0
MATS,2022-147A,2026-07-13T12:04:33.868992,15.05496478,.0014122,97.6828,195.9884,108.3401,251.9363,0,U,54227,999,20172,.1004E-3,.1383E-4,0
EOS-6 (OCEANSAT-3),2022-158A,2026-07-13T12:12:17.845632,14.46983831,.0000333,98.3549,292.3544,137.1094,223.0125,0,U,54361,999,19164,.42541E-4,.111E-5,0
DONGPO 09,2022-167D,2026-07-13T12:32:53.749248,15.36909602,.0002902,97.6910,6.7192,56.1712,303.9807,0,U,54685,999,19949,.19289E-3,.6873E-4,0
DONGPO 08,2022-167E,2026-07-13T13:11:56.479200,15.34163270,.0009315,97.6874,3.7997,78.8629,281.3660,0,U,54686,999,19936,.1968E-3,.643E-4,0
2022-167F,2022-167F,2026-07-13T12:23:41.324064,16.15300709,.0007067,97.5960,26.0650,244.8849,115.1704,0,U,54687,999,20104,.6793E-3,.89724E-2,.51749E-3
DONGPO 10,2022-167H,2026-07-13T13:01:24.087360,15.34979409,.0005101,97.6954,5.8060,33.5831,326.5734,0,U,54689,999,19940,.18998E-3,.6362E-4,0
JILIN-1 GAOFEN 03D48,2022-167P,2026-07-13T12:38:51.459072,15.35770307,.0006593,97.6890,5.1770,35.6438,324.5244,0,U,54695,999,19943,.19319E-3,.6639E-4,0
STAR VIBE,2023-001A,2026-07-13T10:27:02.516256,15.43321928,.0005658,97.3163,259.0157,36.7641,323.3994,0,U,55009,999,19627,.20455E-3,.903E-4,0
BRO-8,2023-001C,2026-07-13T10:54:51.799680,15.50676685,.0005007,97.3193,260.0446,46.2260,313.9405,0,U,55011,999,19627,.34885E-3,.19958E-3,0
CONNECTA T1.2,2023-001D,2026-07-12T16:58:48.345600,15.52743920,.0004122,97.3248,264.8832,16.9652,343.1738,0,U,55012,999,19650,.46967654E-3,.28991E-3,0
BIRKELAND,2023-001G,2026-07-13T10:58:15.790944,15.40519525,.0006607,97.3340,262.4999,26.9356,333.2232,0,U,55015,999,19639,.14133E-3,.5653E-4,0
ION SCV-008,2023-001AU,2026-07-13T06:56:42.143424,15.28866234,.0013186,97.5722,291.0497,280.7353,79.2402,0,U,55051,999,19532,.12982E-3,.357E-4,0
ION SCV-007,2023-001BD,2026-07-13T03:14:00.585600,14.77575181,.00109899,97.8994,256.6335,249.6176,110.3855,0,U,55060,999,19008,.36048491E-4,.207E-5,0
HUYGENS,2023-001CN,2026-07-13T10:58:23.110752,15.40518667,.0008611,97.3244,261.6956,359.5346,0.5890,0,U,55093,999,19641,.13944E-3,.558E-4,0
SHARJAHSAT-1,2023-001CZ,2026-07-13T11:02:08.873088,15.50073391,.0004969,97.3160,263.6063,26.9314,333.2194,0,U,55104,999,19656,.22388E-3,.12493E-3,0
HORUS 1,2023-025A,2026-07-13T11:49:15.016224,15.23527110,.0002884,97.3460,268.5337,115.9194,244.2340,0,U,55690,999,18805,.13821E-3,.3231E-4,0
HORUS 2,2023-032A,2026-07-13T11:05:32.009856,15.23333338,.0000975,97.3530,269.3345,134.2541,225.8777,0,U,55844,999,18548,.134E-3,.3112E-4,0
GLOBAL-19,2023-041B,2026-07-13T00:05:06.750240,15.38645913,.00093255,42.0024,51.2695,204.1950,155.8453,0,U,55982,999,18590,.25300389E-3,.9634E-4,0
ION SCV-010,2023-054Q,2026-07-13T07:38:25.732896,15.26414474,.0014539,97.3750,83.4855,110.0944,250.1861,0,U,56192,999,18018,.11134E-3,.2833E-4,0
TELEOS-2,2023-057C,2026-07-13T02:00:06.410592,14.96416588,.00009414,9.9892,15.6203,275.2393,84.7713,0,U,56310,999,17668,.22341609E-3,.3291E-4,0
