YUNHAI-1 03             
1 53877U 22115A   26194.51597503  .00000234  00000+0  10184-3 0  9993
2 53877  98.5543 192.3300 0004270 344.8869  15.2187 14.32735735199282
CENTISPACE-1 S5         
1 54020U 22126A   26194.38764507  .00000402  00000+0  11430-3 0  9993
2 54020  54.9989 108.1105 0014452 121.0234 239.2181 14.63054750200870
CENTISPACE-1 S6         
1 54021U 22126B   26194.46230757  .00000279  00000+0  91931-4 0  9995
2 54021  54.9991 109.8002 0016248 122.2582 237.9988 14.62315153200845
OTB-3-GAZELLE           
1 54023U 22127A   26194.48436569  .00000069  00000+0  33856-4 0  9998
2 54023  98.3960 185.7900 0014398 107.6366 252.6398 14.42683642198154
ASO-S                   
1 54029U 22129A   26194.50765648  .00000104  00000+0  36672-4 0  9991
2 54029  98.2755 199.2120 0014695  17.3165 342.8529 14.52074362199242
HJ-2E                   
1 54035U 22132A   26194.50850859  .00004393  00000+0  19083-3 0  9991
2 54035  97.3799 198.4175 0018020 277.0380  82.8807 15.22680455208423
COSMOS 2561             
1 54109U 22137A   26194.53213655  .00008296  00000+0  13754-3 0  9993
2 54109  96.9177 252.5562 0008158 288.2828  71.7538 15.52345255210435
GONETS-M 23             
1 54150U 22139A   26194.50477610  .00000019  00000+0  64135-4 0  9996
2 54150  82.5093 331.9386 0022065 162.0645 198.1218 12.42891899168914
GONETS-M 24             
1 54151U 22139B   26194.47783848  .00000009  00000+0 -50155-5 0  9994
2 54151  82.5010 330.9972 0017130 171.7340 188.4025 12.42892472168916
GONETS-M 25             
1 54152U 22139C   26194.46426892  .00000007  00000+0 -24005-4 0  9999
2 54152  82.5075 331.7061 0021067 170.7681 189.3790 12.42890833168915
SKIF-D                  
1 54153U 22139D   26194.03881080  .00000008  00000+0  00000+0 0  9991
2 54153  89.9493  96.6607 0007434 188.4298 171.6266  5.00430161 65408
MATS                    
1 54227U 22147A   26194.50316978  .00001383  00000+0  10040-3 0  9999
2 54227  97.6828 195.9884 0014122 108.3401 251.9363 15.05496478201723
EOS-6 (OCEANSAT-3)      
1 54361U 22158A   26194.50853988  .00000111  00000+0  42541-4 0  9997
2 54361  98.3549 292.3544 0000333 137.1094 223.0125 14.46983831191645
DONGPO 09               
1 54685U 22167D   26194.52284432  .00006873  00000+0  19289-3 0  9993
2 54685  97.6910   6.7192 0002902  56.1712 303.9807 15.36909602199495
DONGPO 08               
1 54686U 22167E   26194.54995925  .00006430  00000+0  19680-3 0  9996
2 54686  97.6874   3.7997 0009315  78.8629 281.3660 15.34163270199361
2022-167F               
1 54687U 22167F   26194.51645051  .00897240  51749-3  67930-3 0  9994
2 54687  97.5960  26.0650 0007067 244.8849 115.1704 16.15300709201044
DONGPO 10               
1 54689U 22167H   26194.54263990  .00006362  00000+0  18998-3 0  9994
2 54689  97.6954   5.8060 0005101  33.5831 326.5734 15.34979409199407
JILIN-1 GAOFEN 03D48    
1 54695U 22167P   26194.52698448  .00006639  00000+0  19319-3 0  9994
2 54695  97.6890   5.1770 0006593  35.6438 324.5244 15.35770307199430
STAR VIBE               
1 55009U 23001A   26194.43544579  .00009030  00000+0  20455-3 0  9998
2 55009  97.3163 259.0157 0005658  36.7641 323.3994 15.43321928196276
BRO-8                   
1 55011U 23001C   26194.45476620  .00019958  00000+0  34885-3 0  9996
2 55011  97.3193 260.0446 0005007  46.2260 313.9405 15.50676685196279
CONNECTA T1.2           
1 55012U 23001D   26193.70750400  .00028991  00000+0  46968-3 0  9997
2 55012  97.3248 264.8832 0004122  16.9652 343.1738 15.52743920196507
BIRKELAND               
1 55015U 23001G   26194.45712721  .00005653  00000+0  14133-3 0  9996
2 55015  97.3340 262.4999 0006607  26.9356 333.2232 15.40519525196398
ION SCV-008             
1 55051U 23001AU  26194.28937666  .00003570  00000+0  12982-3 0  9990
2 55051  97.5722 291.0497 0013186 280.7353  79.2402 15.28866234195328
ION SCV-007             
1 55060U 23001BD  26194.13472900  .00000207  00000+0  36048-4 0  9993
2 55060  97.8994 256.6335 0010989 249.6176 110.3855 14.77575181190083
HUYGENS                 
1 55093U 23001CN  26194.45721193  .00005580  00000+0  13944-3 0  9993
2 55093  97.3244 261.6956 0008611 359.5346   0.5890 15.40518667196415
SHARJAHSAT-1            
1 55104U 23001CZ  26194.45982492  .00012493  00000+0  22388-3 0  9990
2 55104  97.3160 263.6063 0004969  26.9314 333.2194 15.50073391196568
HORUS 1                 
1 55690U 23025A   26194.49253491  .00003231  00000+0  13821-3 0  9992
2 55690  97.3460 268.5337 0002884 115.9194 244.2340 15.23527110188050
HORUS 2                 
1 55844U 23032A   26194.46217604  .00003112  00000+0  13400-3 0  9995
2 55844  97.3530 269.3345 0000975 134.2541 225.8777 15.23333338185486
GLOBAL-19               
1 55982U 23041B   26194.00355035  .00009634  00000+0  25300-3 0  9996
2 55982  42.0024  51.2695 0009325 204.1950 155.8453 15.38645913185900
ION SCV-010             
1 56192U 23054Q   26194.31835339  .00002833  00000+0  11134-3 0  9992
2 56192  97.3750  83.4855 0014539 110.0944 250.1861 15.26414474180189
TELEOS-2                
1 56310U 23057C   26194.08340753  .00003291  00000+0  22342-3 0  9994
2 56310   9.9892  15.6203 0000941 275.2393  84.7713 14.96416588176686
